[
    {
        "Altitude(m)": 604983.0528832038,
        "Argument of Periapsis(deg)": 0.0,
        "Eccentricity": 0.0,
        "Inclination(deg)": 60.0,
        "Latitude(deg)": -0.09257609438070175,
        "Longitude(deg)": 150.08391624506638,
        "Mean Anomaly(deg)": 180.00000000000003,
        "RAAN(deg)": 70.0,
        "Satellite Name": "Test1 319",
        "Satellite Number": 319,
        "Semi-Major Axis(m)": 6980739.136638005,
        "Time(s)": 0
    },
    {
        "Altitude(m)": 605055.3318453762,
        "Argument of Periapsis(deg)": 0.00010418945913296404,
        "Eccentricity": 0.0,
        "Inclination(deg)": 60.0,
        "Latitude(deg)": -0.6329864263277283,
        "Longitude(deg)": 150.3520402430462,
        "Mean Anomaly(deg)": 180.62010614546182,
        "RAAN(deg)": 69.99957995086027,
        "Satellite Name": "Test1 319",
        "Satellite Number": 319,
        "Semi-Major Axis(m)": 6980739.136638005,
        "Time(s)": 10
    }
]